{"fetched_at":"2026-03-29T16:36:15Z","count":15609,"tles":[{"name":"QIANFAN-90","line1":"1 63176U 25046T   26087.89070113  .00000106  00000+0  14536-3 0  9990","line2":"2 63176  88.9720 309.0397 0013496 169.6255 190.5178 13.51014642 61754","category":"Other"}]}