{
  "norad_id": 63176,
  "name": "QIANFAN-90",
  "history": [
    {
      "epoch": "2026-03-28T21:22:36.577632",
      "apogee_km": 1078.577948936213,
      "perigee_km": 1058.4776134921676,
      "latitude_deg": -15.69918106219251,
      "longitude_deg": -136.89269152004272,
      "semi_major_axis_km": 7446.66478121419,
      "eccentricity": 0.00134962,
      "inclination_deg": 88.972,
      "raan_deg": 309.0397,
      "arg_perigee_deg": 169.6255,
      "mean_anomaly_deg": 190.5178,
      "mean_motion_rev_day": 13.51014642
    }
  ]
}